{
  "type": "FeatureCollection",
  "features": [
    {
      "type": "Feature",
      "properties": {
        "norad_id": 40069,
        "name": "METEOR-M 2",
        "group": "weather",
        "lat": -27.305401385125826,
        "lon": 146.51553946789642,
        "alt_km": 822.7812016627504,
        "timestamp": "2025-12-19T14:48:35.886543+00:00",
        "meta_object_name": "METEOR-M 2",
        "meta_object_id": "2014-037A",
        "meta_epoch": "2025-12-19T05:23:21.954624",
        "meta_mean_motion": 14.21388678,
        "meta_eccentricity": 0.00052934,
        "meta_inclination": 98.4898,
        "meta_ra_of_asc_node": 330.5606,
        "meta_arg_of_pericenter": 189.1334,
        "meta_mean_anomaly": 170.9748,
        "meta_ephemeris_type": 0,
        "meta_classification_type": "U",
        "meta_norad_cat_id": 40069,
        "meta_element_set_no": 999,
        "meta_rev_at_epoch": 59375,
        "meta_bstar": 6.1658147e-05,
        "meta_mean_motion_dot": 9.3e-07,
        "meta_mean_motion_ddot": 0,
        "tle_line1": "1 40069U 14037A   25353.22455966  .00000093  00000+0  61658-4 0  9992",
        "tle_line2": "2 40069  98.4898 330.5606 0005293 189.1334 170.9748 14.21388678593751"
      },
      "geometry": {
        "type": "Point",
        "coordinates": [
          146.51553946789642,
          -27.305401385125826
        ]
      }
    },
    {
      "type": "Feature",
      "properties": {
        "norad_id": 40267,
        "name": "HIMAWARI-8",
        "group": "weather",
        "lat": 0.010808194698930563,
        "lon": 91.27519610186134,
        "alt_km": 35789.521578341766,
        "timestamp": "2025-12-19T14:48:35.886555+00:00",
        "meta_object_name": "HIMAWARI-8",
        "meta_object_id": "2014-060A",
        "meta_epoch": "2025-12-19T07:05:03.437088",
        "meta_mean_motion": 1.00271553,
        "meta_eccentricity": 8.584e-05,
        "meta_inclination": 0.0131,
        "meta_ra_of_asc_node": 87.5006,
        "meta_arg_of_pericenter": 207.0375,
        "meta_mean_anomaly": 40.5417,
        "meta_ephemeris_type": 0,
        "meta_classification_type": "U",
        "meta_norad_cat_id": 40267,
        "meta_element_set_no": 999,
        "meta_rev_at_epoch": 4095,
        "meta_bstar": 0,
        "meta_mean_motion_dot": -2.51e-06,
        "meta_mean_motion_ddot": 0,
        "tle_line1": "1 40267U 14060A   25353.29517867 -.00000251  00000+0  00000+0 0  9990",
        "tle_line2": "2 40267   0.0131  87.5006 0000858 207.0375  40.5417  1.00271553 40950"
      },
      "geometry": {
        "type": "Point",
        "coordinates": [
          91.27519610186134,
          0.010808194698930563
        ]
      }
    },
    {
      "type": "Feature",
      "properties": {
        "norad_id": 40367,
        "name": "FENGYUN 2G",
        "group": "weather",
        "lat": -2.1755970155552604,
        "lon": 50.03183352336227,
        "alt_km": 35796.636033420735,
        "timestamp": "2025-12-19T14:48:35.886567+00:00",
        "meta_object_name": "FENGYUN 2G",
        "meta_object_id": "2014-090A",
        "meta_epoch": "2025-12-18T18:58:27.282720",
        "meta_mean_motion": 1.00262065,
        "meta_eccentricity": 0.00027475,
        "meta_inclination": 5.183,
        "meta_ra_of_asc_node": 75.0287,
        "meta_arg_of_pericenter": 205.322,
        "meta_mean_anomaly": 191.2511,
        "meta_ephemeris_type": 0,
        "meta_classification_type": "U",
        "meta_norad_cat_id": 40367,
        "meta_element_set_no": 999,
        "meta_rev_at_epoch": 4019,
        "meta_bstar": 0,
        "meta_mean_motion_dot": -2.78e-06,
        "meta_mean_motion_ddot": 0,
        "tle_line1": "1 40367U 14090A   25352.79059355 -.00000278  00000+0  00000+0 0  9990",
        "tle_line2": "2 40367   5.1830  75.0287 0002747 205.3220 191.2511  1.00262065 40198"
      },
      "geometry": {
        "type": "Point",
        "coordinates": [
          50.03183352336227,
          -2.1755970155552604
        ]
      }
    },
    {
      "type": "Feature",
      "properties": {
        "norad_id": 40732,
        "name": "METEOSAT-11 (MSG-4)",
        "group": "weather",
        "lat": -2.5661957641456303,
        "lon": -40.20006054746218,
        "alt_km": 35788.408692784666,
        "timestamp": "2025-12-19T14:48:35.886580+00:00",
        "meta_object_name": "METEOSAT-11 (MSG-4)",
        "meta_object_id": "2015-034A",
        "meta_epoch": "2025-12-19T06:27:35.873280",
        "meta_mean_motion": 1.00269533,
        "meta_eccentricity": 8.675e-05,
        "meta_inclination": 2.7524,
        "meta_ra_of_asc_node": 71.9848,
        "meta_arg_of_pericenter": 135.2158,
        "meta_mean_anomaly": 347.029,
        "meta_ephemeris_type": 0,
        "meta_classification_type": "U",
        "meta_norad_cat_id": 40732,
        "meta_element_set_no": 999,
        "meta_rev_at_epoch": 541,
        "meta_bstar": 0,
        "meta_mean_motion_dot": 8.3e-07,
        "meta_mean_motion_ddot": 0,
        "tle_line1": "1 40732U 15034A   25353.26916520  .00000083  00000+0  00000+0 0  9997",
        "tle_line2": "2 40732   2.7524  71.9848 0000867 135.2158 347.0290  1.00269533  5415"
      },
      "geometry": {
        "type": "Point",
        "coordinates": [
          -40.20006054746218,
          -2.5661957641456303
        ]
      }
    },
    {
      "type": "Feature",
      "properties": {
        "norad_id": 41105,
        "name": "ELEKTRO-L 2",
        "group": "weather",
        "lat": -4.308614364001391,
        "lon": -64.0284912996336,
        "alt_km": 35771.90731408632,
        "timestamp": "2025-12-19T14:48:35.886592+00:00",
        "meta_object_name": "ELEKTRO-L 2",
        "meta_object_id": "2015-074A",
        "meta_epoch": "2025-12-19T08:09:48.553920",
        "meta_mean_motion": 1.00272645,
        "meta_eccentricity": 0.00035305,
        "meta_inclination": 6.2414,
        "meta_ra_of_asc_node": 72.7502,
        "meta_arg_of_pericenter": 209.6009,
        "meta_mean_anomaly": 273.8109,
        "meta_ephemeris_type": 0,
        "meta_classification_type": "U",
        "meta_norad_cat_id": 41105,
        "meta_element_set_no": 999,
        "meta_rev_at_epoch": 3670,
        "meta_bstar": 0,
        "meta_mean_motion_dot": -9.8e-07,
        "meta_mean_motion_ddot": 0,
        "tle_line1": "1 41105U 15074A   25353.34014530 -.00000098  00000+0  00000+0 0  9992",
        "tle_line2": "2 41105   6.2414  72.7502 0003530 209.6009 273.8109  1.00272645 36703"
      },
      "geometry": {
        "type": "Point",
        "coordinates": [
          -64.0284912996336,
          -4.308614364001391
        ]
      }
    },
    {
      "type": "Feature",
      "properties": {
        "norad_id": 41752,
        "name": "INSAT-3DR",
        "group": "weather",
        "lat": -0.07797353381648521,
        "lon": 24.740603120180367,
        "alt_km": 35809.809778300034,
        "timestamp": "2025-12-19T14:48:35.886605+00:00",
        "meta_object_name": "INSAT-3DR",
        "meta_object_id": "2016-054A",
        "meta_epoch": "2025-12-18T15:21:37.308096",
        "meta_mean_motion": 1.00271616,
        "meta_eccentricity": 0.00141413,
        "meta_inclination": 0.1065,
        "meta_ra_of_asc_node": 86.5445,
        "meta_arg_of_pericenter": 184.9016,
        "meta_mean_anomaly": 120.4485,
        "meta_ephemeris_type": 0,
        "meta_classification_type": "U",
        "meta_norad_cat_id": 41752,
        "meta_element_set_no": 999,
        "meta_rev_at_epoch": 3400,
        "meta_bstar": 0,
        "meta_mean_motion_dot": -5.2e-07,
        "meta_mean_motion_ddot": 0,
        "tle_line1": "1 41752U 16054A   25352.64001514 -.00000052  00000+0  00000+0 0  9999",
        "tle_line2": "2 41752   0.1065  86.5445 0014141 184.9016 120.4485  1.00271616 34000"
      },
      "geometry": {
        "type": "Point",
        "coordinates": [
          24.740603120180367,
          -0.07797353381648521
        ]
      }
    },
    {
      "type": "Feature",
      "properties": {
        "norad_id": 41836,
        "name": "HIMAWARI-9",
        "group": "weather",
        "lat": 0.04488973103363441,
        "lon": 91.35937743031982,
        "alt_km": 35790.51440026648,
        "timestamp": "2025-12-19T14:48:35.886618+00:00",
        "meta_object_name": "HIMAWARI-9",
        "meta_object_id": "2016-064A",
        "meta_epoch": "2025-12-18T18:07:09.740640",
        "meta_mean_motion": 1.00269108,
        "meta_eccentricity": 0.00019267,
        "meta_inclination": 0.02,
        "meta_ra_of_asc_node": 341.613,
        "meta_arg_of_pericenter": 353.5172,
        "meta_mean_anomaly": 165.0202,
        "meta_ephemeris_type": 0,
        "meta_classification_type": "U",
        "meta_norad_cat_id": 41836,
        "meta_element_set_no": 999,
        "meta_rev_at_epoch": 3340,
        "meta_bstar": 0,
        "meta_mean_motion_dot": 0,
        "meta_mean_motion_ddot": 0,
        "tle_line1": "1 41836U 16064A   25352.75497385  .00000000  00000+0  00000+0 0  9992",
        "tle_line2": "2 41836   0.0200 341.6130 0001926 353.5172 165.0202  1.00269108 33401"
      },
      "geometry": {
        "type": "Point",
        "coordinates": [
          91.35937743031982,
          0.04488973103363441
        ]
      }
    }
  ]
}